NORAD_CAT_ID,OBJECT_NAME,OBJECT_TYPE,EPOCH,MEAN_MOTION,ECCENTRICITY,INCLINATION,RA_OF_ASC_NODE,ARG_OF_PERICENTER,MEAN_ANOMALY,BSTAR,MEAN_MOTION_DOT,MEAN_MOTION_DDOT,TLE_LINE0,TLE_LINE1,TLE_LINE2,SEMIMAJOR_AXIS,PERIOD,APOGEE,PERIGEE,DECAYED
55311.0,STARLINK-5312,PAYLOAD,2024-01-31 12:14:14,14.98330961,0.0003255,70.0001,141.4226,272.2083,87.8703,-3.3797e-05,-4.96e-06,0.0,0 STARLINK-5312,1 55311U 23010AU  24031.50988788 -.00000496  00000-0 -33797-4 0  9998,2 55311  70.0001 141.4226 0003255 272.2083  87.8703 14.98330961 58385,6950.19,96.107,574.317,569.793,0.0
55311.0,STARLINK-5312,PAYLOAD,2024-01-31 17:02:38,14.98335412,0.0003207,70.0001,140.9175,272.2637,87.8155,1.0973e-05,3.8e-07,0.0,0 STARLINK-5312,1 55311U 23010AU  24031.71016332  .00000038  00000-0  10973-4 0  9999,2 55311  70.0001 140.9175 0003207 272.2637  87.8155 14.98335412 59607,6950.176,96.107,574.27,569.812,0.0
55311.0,STARLINK-5312,PAYLOAD,2024-02-01 12:16:15,14.98321491,0.0003087,70.0004,138.8963,273.3068,86.7738,8.9059e-05,9.7e-06,0.0,0 STARLINK-5312,1 55311U 23010AU  24032.51128936  .00000970  00000-0  89059-4 0  9998,2 55311  70.0004 138.8963 0003087 273.3068  86.7738 14.98321491 59727,6950.219,96.108,574.23,569.939,0.0
55311.0,STARLINK-5312,PAYLOAD,2024-02-02 12:18:15,14.98333859,0.0003049,70.0002,136.3716,272.1333,87.9477,2.1354e-05,1.62e-06,0.0,0 STARLINK-5312,1 55311U 23010AU  24033.51268331  .00000162  00000-0  21354-4 0  9990,2 55311  70.0002 136.3716 0003049 272.1333  87.9477 14.98333859 58682,6950.181,96.107,574.165,569.927,0.0
55311.0,STARLINK-5312,PAYLOAD,2024-02-02 13:54:23,14.98333352,0.0002872,70.0009,136.2057,258.9283,101.1553,3.9882e-05,3.83e-06,0.0,0 STARLINK-5312,1 55311U 23010AU  24033.57944228  .00000383  00000-0  39882-4 0  9992,2 55311  70.0009 136.2057 0002872 258.9283 101.1553 14.98333352 59880,6950.183,96.107,574.044,570.051,0.0
55311.0,STARLINK-5312,PAYLOAD,2024-02-02 17:06:39,14.98336392,0.0003018,70.0004,135.8676,269.7733,90.3081,5.7625e-05,5.95e-06,0.0,0 STARLINK-5312,1 55311U 23010AU  24033.71295996  .00000595  00000-0  57625-4 0  9999,2 55311  70.0004 135.8676 0003018 269.7733  90.3081 14.98336392 59905,6950.173,96.107,574.136,569.941,0.0
55311.0,STARLINK-5312,PAYLOAD,2024-02-03 12:20:17,14.98321428,0.0002786,70.0009,133.8493,255.4075,104.6775,-6.8988e-05,-9.16e-06,0.0,0 STARLINK-5312,1 55311U 23010AU  24034.51409309 -.00000916  00000-0 -68988-4 0  9996,2 55311  70.0009 133.8493 0002786 255.4075 104.6775 14.98321428 60025,6950.219,96.108,574.021,570.148,0.0
55311.0,STARLINK-5312,PAYLOAD,2024-02-03 15:32:33,14.98323495,0.0002773,70.0007,133.5121,257.5005,102.5844,-4.2842e-05,-6.04e-06,0.0,0 STARLINK-5312,1 55311U 23010AU  24034.64761222 -.00000604  00000-0 -42842-4 0  9990,2 55311  70.0007 133.5121 0002773 257.5005 102.5844 14.98323495 58858,6950.213,96.107,574.005,570.151,0.0
55311.0,STARLINK-5312,PAYLOAD,2024-02-04 12:22:17,14.98336361,0.0002945,70.0008,131.3244,262.3321,97.7504,4.2495e-06,-4.2e-07,0.0,0 STARLINK-5312,1 55311U 23010AU  24035.51548112 -.00000042  00000-0  42495-5 0  9998,2 55311  70.0008 131.3244 0002945 262.3321  97.7504 14.98336361 58985,6950.173,96.107,574.085,569.991,0.0
55311.0,STARLINK-5312,PAYLOAD,2024-02-04 13:58:25,14.9833823,0.0003084,70.0003,131.1554,265.3235,94.7572,3.8025e-05,3.61e-06,0.0,0 STARLINK-5312,1 55311U 23010AU  24035.58223874  .00000361  00000-0  38025-4 0  9996,2 55311  70.0003 131.1554 0003084 265.3235  94.7572 14.98338230 60188,6950.167,96.106,574.176,569.889,0.0
55311.0,STARLINK-5312,PAYLOAD,2024-02-04 15:34:33,14.98338271,0.0002922,70.0008,130.9878,261.9292,98.1535,2.7938e-05,2.4e-06,0.0,0 STARLINK-5312,1 55311U 23010AU  24035.64899863  .00000240  00000-0  27938-4 0  9997,2 55311  70.0008 130.9878 0002922 261.9292  98.1535 14.98338271 60197,6950.167,96.106,574.063,570.001,0.0
55311.0,STARLINK-5312,PAYLOAD,2024-02-05 12:24:19,14.98323222,0.0002818,70.0012,128.8,266.2698,93.8138,5.0939e-05,5.15e-06,0.0,0 STARLINK-5312,1 55311U 23010AU  24036.51688858  .00000515  00000-0  50939-4 0  9996,2 55311  70.0012 128.8000 0002818 266.2698  93.8138 14.98323222 59130,6950.214,96.107,574.037,570.12,0.0
55311.0,STARLINK-5312,PAYLOAD,2024-02-05 14:00:27,14.98324751,0.0003163,69.9997,128.6298,270.3099,89.7698,2.7177e-05,2.31e-06,0.0,0 STARLINK-5312,1 55311U 23010AU  24036.58364806  .00000231  00000-0  27177-4 0  9990,2 55311  69.9997 128.6298 0003163 270.3099  89.7698 14.98324751 60338,6950.209,96.107,574.272,569.876,0.0
55311.0,STARLINK-5312,PAYLOAD,2024-02-05 15:36:35,14.98326382,0.000319,69.9997,128.4614,272.5051,87.5743,4.3588e-05,4.27e-06,0.0,0 STARLINK-5312,1 55311U 23010AU  24036.65040690  .00000427  00000-0  43588-4 0  9991,2 55311  69.9997 128.4614 0003190 272.5051  87.5743 14.98326382 60340,6950.204,96.107,574.286,569.852,0.0
55311.0,STARLINK-5312,PAYLOAD,2024-02-06 10:50:11,14.9833212,0.0003117,69.9996,126.4412,268.8521,91.2281,-4.8015e-05,-6.66e-06,0.0,0 STARLINK-5312,1 55311U 23010AU  24037.45152600 -.00000666  00000-0 -48015-4 0  9992,2 55311  69.9996 126.4412 0003117 268.8521  91.2281 14.98332120 59278,6950.186,96.107,574.218,569.885,0.0
55311.0,STARLINK-5312,PAYLOAD,2024-02-06 14:02:27,14.98337114,0.0002886,70.0001,126.1046,263.7349,96.3481,1.4574e-05,8.1e-07,0.0,0 STARLINK-5312,1 55311U 23010AU  24037.58504039  .00000081  00000-0  14574-4 0  9995,2 55311  70.0001 126.1046 0002886 263.7349  96.3481 14.98337114 60483,6950.171,96.107,574.042,570.03,0.0
55311.0,STARLINK-5312,PAYLOAD,2024-02-06 15:38:35,14.98339084,0.0002905,70.0002,125.9365,265.1601,94.9226,3.4833e-05,3.23e-06,0.0,0 STARLINK-5312,1 55311U 23010AU  24037.65179831  .00000323  00000-0  34833-4 0  9990,2 55311  70.0002 125.9365 0002905 265.1601  94.9226 14.98339084 59302,6950.165,96.106,574.049,570.011,0.0
55311.0,STARLINK-5312,PAYLOAD,2024-02-07 12:28:20,14.98330071,0.0002999,69.9999,123.749,271.8033,88.2782,0.0001212,1.353e-05,0.0,0 STARLINK-5312,1 55311U 23010AU  24038.51968082  .00001353  00000-0  12120-3 0  9998,2 55311  69.9999 123.7490 0002999 271.8033  88.2782 14.98330071 59439,6950.193,96.107,574.142,569.973,0.0
55311.0,STARLINK-5312,PAYLOAD,2024-02-07 14:04:28,14.98326832,0.0002925,70.0001,123.582,269.3338,90.7486,0.00012029,1.342e-05,0.0,0 STARLINK-5312,1 55311U 23010AU  24038.58644249  .00001342  00000-0  12029-3 0  9997,2 55311  70.0001 123.5820 0002925 269.3338  90.7486 14.98326832 60633,6950.203,96.107,574.101,570.035,0.0
55311.0,STARLINK-5312,PAYLOAD,2024-02-07 15:40:36,14.98324875,0.0002893,70.0002,123.4137,269.2036,90.8791,0.00016732,1.904e-05,0.0,0 STARLINK-5312,1 55311U 23010AU  24038.65320267  .00001904  00000-0  16732-3 0  9995,2 55311  70.0002 123.4137 0002893 269.2036  90.8791 14.98324875 60648,6950.209,96.107,574.084,570.063,0.0
55311.0,STARLINK-5312,PAYLOAD,2024-02-08 10:54:13,14.98328882,0.00026,70.001,121.3948,253.858,106.2293,-5.2446e-05,-7.19e-06,0.0,0 STARLINK-5312,1 55311U 23010AU  24039.45432650 -.00000719  00000-0 -52446-4 0  9992,2 55311  70.0010 121.3948 0002600 253.8580 106.2293 14.98328882 59574,6950.196,96.107,573.868,570.254,0.0
55311.0,STARLINK-5312,PAYLOAD,2024-02-08 14:06:29,14.9833,0.000279,70.0004,121.0571,263.737,96.3472,-3.831e-05,-5.5e-06,0.0,0 STARLINK-5312,1 55311U 23010AU  24039.58784543 -.00000550  00000-0 -38310-4 0  9994,2 55311  70.0004 121.0571 0002790 263.7370  96.3472 14.98330000 60781,6950.193,96.107,573.997,570.119,0.0
55311.0,STARLINK-5312,PAYLOAD,2024-02-08 15:42:37,14.98332831,0.0002768,70.0001,120.8884,269.1264,90.9578,-1.3668e-05,-2.56e-06,0.0,0 STARLINK-5312,1 55311U 23010AU  24039.65460368 -.00000256  00000-0 -13668-4 0  9990,2 55311  70.0001 120.8884 0002768 269.1264  90.9578 14.98332831 60791,6950.184,96.107,573.973,570.125,0.0
55311.0,STARLINK-5312,PAYLOAD,2024-02-09 10:56:14,14.98330992,0.0002804,70.0002,118.868,272.5793,87.5045,6.6439e-05,7e-06,0.0,0 STARLINK-5312,1 55311U 23010AU  24040.45572067  .00000700  00000-0  66439-4 0  9996,2 55311  70.0002 118.8680 0002804 272.5793  87.5045 14.98330992 59727,6950.19,96.107,574.004,570.106,0.0
55311.0,STARLINK-5312,PAYLOAD,2024-02-09 14:08:29,14.98352881,0.0002535,70.0001,118.5314,270.5432,89.5437,-0.00025972,-3.192e-05,0.0,0 STARLINK-5312,1 55311U 23010AU  24040.58923454 -.00003192  00000-0 -25972-3 0  9996,2 55311  70.0001 118.5314 0002535 270.5432  89.5437 14.98352881 60939,6950.122,96.106,573.749,570.225,0.0
55311.0,STARLINK-5312,PAYLOAD,2024-02-10 10:58:15,14.98323107,0.0002562,70.0004,116.3431,256.8688,103.2185,-6.5445e-06,-1.71e-06,0.0,0 STARLINK-5312,1 55311U 23010AU  24041.45712675 -.00000171  00000-0 -65445-5 0  9999,2 55311  70.0004 116.3431 0002562 256.8688 103.2185 14.98323107 59872,6950.214,96.107,573.86,570.299,0.0
55311.0,STARLINK-5312,PAYLOAD,2024-02-10 14:10:31,14.98322712,0.0002517,70.0006,116.0067,253.2464,106.8419,1.8706e-05,1.3e-06,0.0,0 STARLINK-5312,1 55311U 23010AU  24041.59064670  .00000130  00000-0  18706-4 0  9999,2 55311  70.0006 116.0067 0002517 253.2464 106.8419 14.98322712 61085,6950.215,96.107,573.83,570.331,0.0
55311.0,STARLINK-5312,PAYLOAD,2024-02-10 15:46:39,14.98323881,0.0002495,70.0006,115.8383,252.7743,107.3143,5.6573e-06,-2.5e-07,0.0,0 STARLINK-5312,1 55311U 23010AU  24041.65740650 -.00000025  00000-0  56573-5 0  9994,2 55311  70.0006 115.8383 0002495 252.7743 107.3143 14.98323881 61091,6950.212,96.107,573.811,570.343,0.0
55311.0,STARLINK-5312,PAYLOAD,2024-02-11 04:35:44,14.98332816,0.0002624,70.0003,114.4913,256.2688,103.8179,-1.9258e-05,-3.23e-06,0.0,0 STARLINK-5312,1 55311U 23010AU  24042.19148153 -.00000323  00000-0 -19258-4 0  9994,2 55311  70.0003 114.4913 0002624 256.2688 103.8179 14.98332816 59986,6950.184,96.107,573.873,570.225,0.0
55311.0,STARLINK-5312,PAYLOAD,2024-02-11 14:12:32,14.98334648,0.0002613,70.0006,113.4818,253.9301,106.157,7.6539e-06,-2e-08,0.0,0 STARLINK-5312,1 55311U 23010AU  24042.59203873 -.00000002  00000-0  76539-5 0  9998,2 55311  70.0006 113.4818 0002613 253.9301 106.1570 14.98334648 61233,6950.179,96.107,573.86,570.227,0.0
